NORAD_CAT_ID,OBJECT_NAME,OBJECT_TYPE,EPOCH,MEAN_MOTION,ECCENTRICITY,INCLINATION,RA_OF_ASC_NODE,ARG_OF_PERICENTER,MEAN_ANOMALY,BSTAR,MEAN_MOTION_DOT,MEAN_MOTION_DDOT,TLE_LINE0,TLE_LINE1,TLE_LINE2,SEMIMAJOR_AXIS,PERIOD,APOGEE,PERIGEE,DECAYED
53971.0,STARLINK-4639,PAYLOAD,2024-07-01 12:44:10,15.0884114,0.0001371,53.2158,110.1247,96.6673,263.4475,-6.8419e-06,-3.97e-06,0.0,0 STARLINK-4639,1 53971U 22125H   24183.53067346 -.00000397  00000-0 -68419-5 0  9993,2 53971  53.2158 110.1247 0001371  96.6673 263.4475 15.08841140 96374,6917.877,95.437,540.69,538.793,0.0
53971.0,STARLINK-4639,PAYLOAD,2024-07-02 04:38:01,15.08840898,0.0001342,53.2156,107.1492,101.9466,258.1677,0.0002192,3.202e-05,0.0,0 STARLINK-4639,1 53971U 22125H   24184.19307660  .00003202  00000-0  21920-3 0  9992,2 53971  53.2156 107.1492 0001342 101.9466 258.1677 15.08840898 96406,6917.878,95.437,540.671,538.814,0.0
53971.0,STARLINK-4639,PAYLOAD,2024-07-02 18:56:30,15.08837647,0.0001621,53.2156,104.4707,101.2915,258.826,1.9824e-05,2.7e-07,0.0,0 STARLINK-4639,1 53971U 22125H   24184.78924051  .00000027  00000-0  19824-4 0  9999,2 53971  53.2156 104.4707 0001621 101.2915 258.8260 15.08837647 96567,6917.888,95.438,540.874,538.631,0.0
53971.0,STARLINK-4639,PAYLOAD,2024-07-02 22:07:16,15.08840847,0.0001761,53.2154,103.8765,115.2914,244.8261,6.624e-05,7.66e-06,0.0,0 STARLINK-4639,1 53971U 22125H   24184.92171837  .00000766  00000-0  66240-4 0  9995,2 53971  53.2154 103.8765 0001761 115.2914 244.8261 15.08840847 96518,6917.878,95.438,540.961,538.525,0.0
53971.0,STARLINK-4639,PAYLOAD,2024-07-03 21:58:03,15.08844514,0.0001338,53.2163,99.4189,96.4512,263.6632,0.00021368,3.115e-05,0.0,0 STARLINK-4639,1 53971U 22125H   24185.91531887  .00003115  00000-0  21368-3 0  9992,2 53971  53.2163  99.4189 0001338  96.4512 263.6632 15.08844514 96664,6917.867,95.437,540.657,538.806,0.0
53971.0,STARLINK-4639,PAYLOAD,2024-07-04 04:19:35,15.08854207,0.0001297,53.2164,98.2297,89.6,270.514,0.00038039,5.773e-05,0.0,0 STARLINK-4639,1 53971U 22125H   24186.18027498  .00005773  00000-0  38039-3 0  9995,2 53971  53.2164  98.2297 0001297  89.6000 270.5140 15.08854207 96775,6917.837,95.437,540.599,538.805,0.0
53971.0,STARLINK-4639,PAYLOAD,2024-07-04 10:41:08,15.08848207,0.000127,53.2158,97.0391,86.0177,274.0961,0.00027503,4.093e-05,0.0,0 STARLINK-4639,1 53971U 22125H   24186.44523604  .00004093  00000-0  27503-3 0  9992,2 53971  53.2158  97.0391 0001270  86.0177 274.0961 15.08848207 96747,6917.855,95.437,540.599,538.842,0.0
53971.0,STARLINK-4639,PAYLOAD,2024-07-04 18:38:04,15.08842702,0.0001956,53.2173,95.5545,88.8701,271.2515,8.7148e-05,1.099e-05,0.0,0 STARLINK-4639,1 53971U 22125H   24186.77643978  .00001099  00000-0  87148-4 0  9990,2 53971  53.2173  95.5545 0001956  88.8701 271.2515 15.08842702 96863,6917.872,95.437,541.09,538.384,0.0
53971.0,STARLINK-4639,PAYLOAD,2024-07-04 21:48:50,15.08839664,0.0001622,53.2185,94.9636,97.6124,262.5053,5.1531e-05,5.32e-06,0.0,0 STARLINK-4639,1 53971U 22125H   24186.90892154  .00000532  00000-0  51531-4 0  9995,2 53971  53.2185  94.9636 0001622  97.6124 262.5053 15.08839664 96815,6917.881,95.438,540.868,538.624,0.0
53971.0,STARLINK-4639,PAYLOAD,2024-07-05 10:31:55,15.08841369,0.0001365,53.2172,92.5791,86.887,273.2278,8.1576e-05,1.011e-05,0.0,0 STARLINK-4639,1 53971U 22125H   24187.43883919  .00001011  00000-0  81576-4 0  9998,2 53971  53.2172  92.5791 0001365  86.8870 273.2278 15.08841369 96890,6917.876,95.437,540.685,538.797,0.0
53971.0,STARLINK-4639,PAYLOAD,2024-07-05 21:39:37,15.08840666,0.0001408,53.2173,90.4999,92.1574,267.9579,8.4564e-05,1.058e-05,0.0,0 STARLINK-4639,1 53971U 22125H   24187.90252042  .00001058  00000-0  84564-4 0  9998,2 53971  53.2173  90.4999 0001408  92.1574 267.9579 15.08840666 96968,6917.878,95.438,540.717,538.769,0.0
53971.0,STARLINK-4639,PAYLOAD,2024-07-06 02:25:46,15.08851055,0.0001325,53.2171,89.6092,98.3306,261.7836,0.00037013,5.609e-05,0.0,0 STARLINK-4639,1 53971U 22125H   24188.10123716  .00005609  00000-0  37013-3 0  9998,2 53971  53.2171  89.6092 0001325  98.3306 261.7836 15.08851055 97063,6917.847,95.437,540.628,538.795,0.0
53971.0,STARLINK-4639,PAYLOAD,2024-07-06 10:22:42,15.08848077,0.0001139,53.2169,88.1212,84.2706,275.8416,0.00033328,5.021e-05,0.0,0 STARLINK-4639,1 53971U 22125H   24188.43243781  .00005021  00000-0  33328-3 0  9992,2 53971  53.2169  88.1212 0001139  84.2706 275.8416 15.08848077 97047,6917.856,95.437,540.509,538.933,0.0
53971.0,STARLINK-4639,PAYLOAD,2024-07-06 21:30:25,15.08830964,0.0001707,53.2178,86.0443,95.5029,264.6157,-0.00010053,-1.887e-05,0.0,0 STARLINK-4639,1 53971U 22125H   24188.89612450 -.00001887  00000-0 -10053-3 0  9993,2 53971  53.2178  86.0443 0001707  95.5029 264.6157 15.08830964 97116,6917.908,95.438,540.954,538.592,0.0
53971.0,STARLINK-4639,PAYLOAD,2024-07-07 02:16:34,15.08834262,0.0001911,53.22,85.1503,88.6837,271.4374,1.1069e-05,-1.12e-06,0.0,0 STARLINK-4639,1 53971U 22125H   24189.09484655 -.00000112  00000-0  11069-4 0  9998,2 53971  53.2200  85.1503 0001911  88.6837 271.4374 15.08834262 97219,6917.898,95.438,541.085,538.441,0.0
53971.0,STARLINK-4639,PAYLOAD,2024-07-08 10:04:17,15.08843129,0.0001278,53.2172,79.2,89.6183,270.4956,0.0001029,1.35e-05,0.0,0 STARLINK-4639,1 53971U 22125H   24190.41964381  .00001350  00000-0  10290-3 0  9993,2 53971  53.2172  79.2000 0001278  89.6183 270.4956 15.08843129 97413,6917.871,95.437,540.62,538.852,0.0
53971.0,STARLINK-4639,PAYLOAD,2024-07-08 22:47:22,15.08843294,0.0001297,53.2167,76.8185,97.8444,262.2695,0.00020923,3.044e-05,0.0,0 STARLINK-4639,1 53971U 22125H   24190.94956409  .00003044  00000-0  20923-3 0  9999,2 53971  53.2167  76.8185 0001297  97.8444 262.2695 15.08843294 97429,6917.87,95.437,540.633,538.838,0.0
53971.0,STARLINK-4639,PAYLOAD,2024-07-09 09:55:04,15.08842534,0.0001285,53.2152,74.7387,119.1219,240.9901,0.00013647,1.885e-05,0.0,0 STARLINK-4639,1 53971U 22125H   24191.41324216  .00001885  00000-0  13647-3 0  9993,2 53971  53.2152  74.7387 0001285 119.1219 240.9901 15.08842534 97495,6917.873,95.437,540.627,538.849,0.0
53971.0,STARLINK-4639,PAYLOAD,2024-07-09 19:27:23,15.08839976,0.000131,53.2161,72.9538,106.1847,253.929,-9.071e-05,-1.731e-05,0.0,0 STARLINK-4639,1 53971U 22125H   24191.81068519 -.00001731  00000-0 -90710-4 0  9997,2 53971  53.2161  72.9538 0001310 106.1847 253.9290 15.08839976 97621,6917.88,95.438,540.652,538.839,0.0
53971.0,STARLINK-4639,PAYLOAD,2024-07-09 22:38:09,15.08847567,0.0001516,53.2176,72.3593,129.4571,230.6555,-1.8086e-05,-5.76e-06,0.0,0 STARLINK-4639,1 53971U 22125H   24191.94316177 -.00000576  00000-0 -18086-4 0  9999,2 53971  53.2176  72.3593 0001516 129.4571 230.6555 15.08847567 97577,6917.857,95.437,540.771,538.674,0.0
53971.0,STARLINK-4639,PAYLOAD,2024-07-10 20:53:33,15.08840595,0.0001488,53.2191,68.1988,94.6892,265.427,3.4334e-05,2.59e-06,0.0,0 STARLINK-4639,1 53971U 22125H   24192.87052663  .00000259  00000-0  34334-4 0  9999,2 53971  53.2191  68.1988 0001488  94.6892 265.4270 15.08840595 97789,6917.879,95.438,540.773,538.714,0.0
53971.0,STARLINK-4639,PAYLOAD,2024-07-10 22:28:56,15.08844792,0.0001573,53.2189,67.9008,102.5762,257.5406,3.96e-07,-2.82e-06,0.0,0 STARLINK-4639,1 53971U 22125H   24192.93676457 -.00000282  00000-0  39600-6 0  9999,2 53971  53.2189  67.9008 0001573 102.5762 257.5406 15.08844792 97726,6917.866,95.437,540.819,538.643,0.0
53971.0,STARLINK-4639,PAYLOAD,2024-07-11 19:08:59,15.08786423,0.0001348,53.2191,64.0372,112.1368,247.9767,0.00084967,0.00013241,0.0,0 STARLINK-4639,1 53971U 22125H   24193.79790560  .00013241  00000-0  84967-3 0  9997,2 53971  53.2191  64.0372 0001348 112.1368 247.9767 15.08786423 97921,6918.044,95.441,540.842,538.977,0.0
53971.0,STARLINK-4639,PAYLOAD,2024-07-12 07:52:02,15.08836764,0.0001485,53.2187,61.6583,104.7426,255.3731,7.8615e-05,9.63e-06,0.0,0 STARLINK-4639,1 53971U 22125H   24194.32780993  .00000963  00000-0  78615-4 0  9997,2 53971  53.2187  61.6583 0001485 104.7426 255.3731 15.08836764 98005,6917.89,95.438,540.783,538.728,0.0
53971.0,STARLINK-4639,PAYLOAD,2024-07-12 22:10:30,15.08853987,0.0001632,53.2194,58.9845,109.2929,250.8239,-0.00013011,-2.359e-05,0.0,0 STARLINK-4639,1 53971U 22125H   24194.92396560 -.00002359  00000-0 -13011-3 0  9997,2 53971  53.2194  58.9845 0001632 109.2929 250.8239 15.08853987 98026,6917.838,95.437,540.832,538.574,0.0
53971.0,STARLINK-4639,PAYLOAD,2024-07-13 07:42:49,15.08839367,0.0001359,53.2185,57.1956,102.1722,257.9422,7.8702e-05,9.65e-06,0.0,0 STARLINK-4639,1 53971U 22125H   24195.32140961  .00000965  00000-0  78702-4 0  9992,2 53971  53.2185  57.1956 0001359 102.1722 257.9422 15.08839367 98083,6917.882,95.438,540.687,538.807,0.0
53971.0,STARLINK-4639,PAYLOAD,2024-07-13 20:25:55,15.08837679,0.0001544,53.2204,54.8203,102.1662,257.9503,6.8251e-05,7.98e-06,0.0,0 STARLINK-4639,1 53971U 22125H   24195.85133369  .00000798  00000-0  68251-4 0  9996,2 53971  53.2204  54.8203 0001544 102.1662 257.9503 15.08837679 98234,6917.887,95.438,540.821,538.684,0.0
53971.0,STARLINK-4639,PAYLOAD,2024-07-13 22:01:18,15.08840273,0.0001554,53.2202,54.5234,100.9066,259.2101,9.2039e-05,1.177e-05,0.0,0 STARLINK-4639,1 53971U 22125H   24195.91757167  .00001177  00000-0  92039-4 0  9994,2 53971  53.2202  54.5234 0001554 100.9066 259.2101 15.08840273 98174,6917.88,95.438,540.82,538.67,0.0
53971.0,STARLINK-4639,PAYLOAD,2024-07-14 07:33:37,15.08834675,0.0001349,53.2188,52.7331,82.7307,277.3838,0.00012666,1.728e-05,0.0,0 STARLINK-4639,1 53971U 22125H   24196.31501359  .00001728  00000-0  12666-3 0  9998,2 53971  53.2188  52.7331 0001349  82.7307 277.3838 15.08834675 98236,6917.897,95.438,540.695,538.828,0.0
53971.0,STARLINK-4639,PAYLOAD,2024-07-14 20:16:41,15.08846483,0.000139,53.2187,50.3541,95.8193,264.2958,0.00010286,1.35e-05,0.0,0 STARLINK-4639,1 53971U 22125H   24196.84492761  .00001350  00000-0  10286-3 0  9999,2 53971  53.2187  50.3541 0001390  95.8193 264.2958 15.08846483 98380,6917.861,95.437,540.687,538.764,0.0
